$$SOE
2460721.500000000, A.D. 2025-Feb-15 00:00:00.0000, -6.055561469229588E+07, -3.361268655379953E+08, -2.699778230354075E+07,
2460728.500000000, A.D. 2025-Feb-22 00:00:00.0000, -4.872426551444682E+07, -3.363355365238065E+08, -2.758345228781822E+07,
2460735.500000000, A.D. 2025-Mar-01 00:00:00.0000, -3.683328098533448E+07, -3.361323949315564E+08, -2.813534183475433E+07,
2460742.500000000, A.D. 2025-Mar-08 00:00:00.0000, -2.489655915887268E+07, -3.355116530690534E+08, -2.865227013549514E+07,
2460749.500000000, A.D. 2025-Mar-15 00:00:00.0000, -1.292847025610125E+07, -3.344678998948989E+08, -2.913306735873593E+07,
2460756.500000000, A.D. 2025-Mar-22 00:00:00.0000, -9.438596989600066E+05, -3.329961337872833E+08, -2.957657732055096E+07,
2460763.500000000, A.D. 2025-Mar-29 00:00:00.0000, 1.104195215943924E+07, -3.310917992244886E+08, -2.998166070301381E+07,
2460770.500000000, A.D. 2025-Apr-05 00:00:00.0000, 2.301317416661567E+07, -3.287508241921229E+08, -3.034719860236871E+07,
2460777.500000000, A.D. 2025-Apr-12 00:00:00.0000, 3.495355068208483E+07, -3.259696581421100E+08, -3.067209622727627E+07,
2460784.500000000, A.D. 2025-Apr-19 00:00:00.0000, 4.684637013441376E+07, -3.227453112862511E+08, -3.095528680568373E+07,
2460791.500000000, A.D. 2025-Apr-26 00:00:00.0000, 5.867447635655473E+07, -3.190753952995594E+08, -3.119573574330412E+07,
2460798.500000000, A.D. 2025-May-03 00:00:00.0000, 7.042028307865819E+07, -3.149581652536882E+08, -3.139244504137760E+07,
2460805.500000000, A.D. 2025-May-10 00:00:00.0000, 8.206579187474138E+07, -3.103925625753293E+08, -3.154445797148180E+07,
2460812.500000000, A.D. 2025-May-17 00:00:00.0000, 9.359261386692256E+07, -3.053782588377728E+08, -3.165086400681229E+07,
2460819.500000000, A.D. 2025-May-24 00:00:00.0000, 1.049819956198476E+08, -2.999157001705056E+08, -3.171080401910038E+07,
2460826.500000000, A.D. 2025-May-31 00:00:00.0000, 1.162148498843255E+08, -2.940061516630197E+08, -3.172347573730820E+07,
2460833.500000000, A.D. 2025-Jun-07 00:00:00.0000, 1.272717910090686E+08, -2.876517401927962E+08, -3.168813930950168E+07,
2460840.500000000, A.D. 2025-Jun-14 00:00:00.0000, 1.381331728553663E+08, -2.808554959238671E+08, -3.160412277623221E+07,
2460847.500000000, A.D. 2025-Jun-21 00:00:00.0000, 1.487791306103548E+08, -2.736213952803392E+08, -3.147082780135110E+07,
2460854.500000000, A.D. 2025-Jun-28 00:00:00.0000, 1.591896297760330E+08, -2.659544031333779E+08, -3.128773576760091E+07,
2460861.500000000, A.D. 2025-Jul-05 00:00:00.0000, 1.693445209160663E+08, -2.578605115217335E+08, -3.105441388198607E+07,
2460868.500000000, A.D. 2025-Jul-12 00:00:00.0000, 1.792235990030993E+08, -2.493467751509723E+08, -3.077052120069261E+07,
2460875.500000000, A.D. 2025-Jul-19 00:00:00.0000, 1.888066675197570E+08, -2.404213436465950E+08, -3.043581458316009E+07,
2460882.500000000, A.D. 2025-Jul-26 00:00:00.0000, 1.980736074128345E+08, -2.310934899850225E+08, -3.005015453710116E+07,
2460889.500000000, A.D. 2025-Aug-02 00:00:00.0000, 2.070044507745797E+08, -2.213736344262713E+08, -2.961351089002718E+07,
2460896.500000000, A.D. 2025-Aug-09 00:00:00.0000, 2.155794589933284E+08, -2.112733632963472E+08, -2.912596821583170E+07,
2460903.500000000, A.D. 2025-Aug-16 00:00:00.0000, 2.237792050745591E+08, -2.008054420122799E+08, -2.858773094865575E+07,
2460910.500000000, A.D. 2025-Aug-23 00:00:00.0000, 2.315846599579339E+08, -1.899838216737164E+08, -2.799912812659982E+07,
2460917.500000000, A.D. 2025-Aug-30 00:00:00.0000, 2.389772826038795E+08, -1.788236378839986E+08, -2.736061765422789E+07,
2460924.500000000, A.D. 2025-Sep-06 00:00:00.0000, 2.459391117791503E+08, -1.673412002352985E+08, -2.667278979093547E+07,
2460931.500000000, A.D. 2025-Sep-13 00:00:00.0000, 2.524528571135222E+08, -1.555539744405391E+08, -2.593636983574917E+07,
2460938.500000000, A.D. 2025-Sep-20 00:00:00.0000, 2.585019918467690E+08, -1.434805583320841E+08, -2.515222036663216E+07,
2460945.500000000, A.D. 2025-Sep-27 00:00:00.0000, 2.640708473886389E+08, -1.311406482894890E+08, -2.432134280466685E+07,
2460952.500000000, A.D. 2025-Oct-04 00:00:00.0000, 2.691447066669279E+08, -1.185549953468170E+08, -2.344487800732818E+07,
2460959.500000000, A.D. 2025-Oct-11 00:00:00.0000, 2.737098948215073E+08, -1.057453518378741E+08, -2.252410587446363E+07,
2460966.500000000, A.D. 2025-Oct-18 00:00:00.0000, 2.777538664189221E+08, -9.273440890590265E+07, -2.156044396626866E+07,
2460973.500000000, A.D. 2025-Oct-25 00:00:00.0000, 2.812652881999635E+08, -7.954572506635875E+07, -2.055544510834817E+07,
2460980.500000000, A.D. 2025-Nov-01 00:00:00.0000, 2.842341162783025E+08, -6.620364616188394E+07, -1.951079396366305E+07,
2460987.500000000, A.D. 2025-Nov-08 00:00:00.0000, 2.866516667338349E+08, -5.273321725429551E+07, -1.842830257028950E+07,
2460994.500000000, A.D. 2025-Nov-15 00:00:00.0000, 2.885106787102110E+08, -3.916008718385656E+07, -1.730990487333257E+07,
2461001.500000000, A.D. 2025-Nov-22 00:00:00.0000, 2.898053694528890E+08, -2.551040639450218E+07, -1.615765029696223E+07,
2461008.500000000, A.D. 2025-Nov-29 00:00:00.0000, 2.905314802759817E+08, -1.181071783736482E+07, -1.497369629353618E+07,
2461015.500000000, A.D. 2025-Dec-06 00:00:00.0000, 2.906863104687138E+08, 1.912157836621635E+06, -1.376029973333659E+07,
2461022.500000000, A.D. 2025-Dec-13 00:00:00.0000, 2.902687390048556E+08, 1.563123823470228E+07, -1.251980752844241E+07,
2461029.500000000, A.D. 2025-Dec-20 00:00:00.0000, 2.892792371243412E+08, 2.931949609182925E+07, -1.125464681998055E+07,
2461036.500000000, A.D. 2025-Dec-27 00:00:00.0000, 2.877198704697528E+08, 4.294997833505209E+07, -9.967314523572922E+06,
2461043.500000000, A.D. 2026-Jan-03 00:00:00.0000, 2.855942892650245E+08, 5.649592539306865E+07, -8.660366265649470E+06,
2461050.500000000, A.D. 2026-Jan-10 00:00:00.0000, 2.829077067780482E+08, 6.993088874140953E+07, -7.336404900889780E+06,
2461057.500000000, A.D. 2026-Jan-17 00:00:00.0000, 2.796668666126729E+08, 8.322884529538880E+07, -5.998068769959398E+06,
2461064.500000000, A.D. 2026-Jan-24 00:00:00.0000, 2.758799993943007E+08, 9.636430743990897E+07, -4.648019835916001E+06,
2461071.500000000, A.D. 2026-Jan-31 00:00:00.0000, 2.715567695194999E+08, 1.093124275440134E+08, -3.288931834907196E+06,
2461078.500000000, A.D. 2026-Feb-07 00:00:00.0000, 2.667082128224988E+08, 1.220490958704066E+08, -1.923478581212170E+06,
2461085.500000000, A.D. 2026-Feb-14 00:00:00.0000, 2.613466663284739E+08, 1.345510309626761E+08, -5.543225751004443E+05,
2461092.500000000, A.D. 2026-Feb-21 00:00:00.0000, 2.554856914962299E+08, 1.467958623245972E+08, 8.158959816871583E+05,
2461099.500000000, A.D. 2026-Feb-28 00:00:00.0000, 2.491399909408684E+08, 1.587622059359072E+08, 2.184569850787409E+06,
2461106.500000000, A.D. 2026-Mar-07 00:00:00.0000, 2.423253177106797E+08, 1.704297302226486E+08, 3.549135040289409E+06,
2461113.500000000, A.D. 2026-Mar-14 00:00:00.0000, 2.350583810710393E+08, 1.817792098676424E+08, 4.907080180998005E+06,
2461120.500000000, A.D. 2026-Mar-21 00:00:00.0000, 2.273567517287043E+08, 1.927925702119484E+08, 6.255955000980422E+06,
2461127.500000000, A.D. 2026-Mar-28 00:00:00.0000, 2.192387655913516E+08, 2.034529232835220E+08, 7.593378113022387E+06,
2461134.500000000, A.D. 2026-Apr-04 00:00:00.0000, 2.107234265145312E+08, 2.137445946482722E+08, 8.917044052681386E+06,
2461141.500000000, A.D. 2026-Apr-11 00:00:00.0000, 2.018303093099102E+08, 2.236531410259159E+08, 1.022472948964378E+07,
2461148.500000000, A.D. 2026-Apr-18 00:00:00.0000, 1.925794641116007E+08, 2.331653590832322E+08, 1.151429859021732E+07,
2461155.500000000, A.D. 2026-Apr-25 00:00:00.0000, 1.829913230039543E+08, 2.422692859244923E+08, 1.278370753405415E+07,
2461162.500000000, A.D. 2026-May-02 00:00:00.0000, 1.730866096976914E+08, 2.509541918185822E+08, 1.403100819630706E+07,
2461169.500000000, A.D. 2026-May-09 00:00:00.0000, 1.628862530228578E+08, 2.592105657184951E+08, 1.525435100377813E+07,
2461176.500000000, A.D. 2026-May-16 00:00:00.0000, 1.524113051498612E+08, 2.670300943767344E+08, 1.645198697543256E+07,
2461183.500000000, A.D. 2026-May-23 00:00:00.0000, 1.416828650216517E+08, 2.744056367710938E+08, 1.762226906663221E+07,
2461190.500000000, A.D. 2026-May-30 00:00:00.0000, 1.307220052455118E+08, 2.813311948514003E+08, 1.876365307881694E+07,
2461197.500000000, A.D. 2026-Jun-06 00:00:00.0000, 1.195497023449634E+08, 2.878018780271301E+08, 1.987469794726899E+07,
2461204.500000000, A.D. 2026-Jun-13 00:00:00.0000, 1.081867741830237E+08, 2.938138622949595E+08, 2.095406514264955E+07,
2461211.500000000, A.D. 2026-Jun-20 00:00:00.0000, 9.665382412736495E+07, 2.993643475918018E+08, 2.200051752609980E+07,
2461218.500000000, A.D. 2026-Jun-27 00:00:00.0000, 8.497119024657081E+07, 3.044515136528175E+08, 2.301291784110434E+07,
2461225.500000000, A.D. 2026-Jul-04 00:00:00.0000, 7.315889946094006E+07, 3.090744741854075E+08, 2.399022683435193E+07,
2461232.500000000, A.D. 2026-Jul-11 00:00:00.0000, 6.123662677279796E+07, 3.132332297709811E+08, 2.493150102585085E+07,
2461239.500000000, A.D. 2026-Jul-18 00:00:00.0000, 4.922365949477683E+07, 3.169286200168092E+08, 2.583589017418770E+07,
2461246.500000000, A.D. 2026-Jul-25 00:00:00.0000, 3.713886628896403E+07, 3.201622754084665E+08, 2.670263448467049E+07,
2461253.500000000, A.D. 2026-Aug-01 00:00:00.0000, 2.500067082408019E+07, 3.229365692133799E+08, 2.753106159884806E+07,
2461260.500000000, A.D. 2026-Aug-08 00:00:00.0000, 1.282703000237914E+07, 3.252545697499193E+08, 2.832058338644002E+07,
2461267.500000000, A.D. 2026-Aug-15 00:00:00.0000, 6.354168922359134E+05, 3.271199937774056E+08, 2.907069257891411E+07,
2461274.500000000, A.D. 2026-Aug-22 00:00:00.0000, -1.155719268093791E+07, 3.285371624921833E+08, 2.978095945146580E+07,
2461281.500000000, A.D. 2026-Aug-29 00:00:00.0000, -2.373433245927561E+07, 3.295109589716101E+08, 3.045102868354481E+07,
2461288.500000000, A.D. 2026-Sep-05 00:00:00.0000, -3.588005515194152E+07, 3.300467843625362E+08, 3.108061599661970E+07,
$$EOE